[{"OBJECT_NAME":"LEMUR-2-SONNENBLUME","OBJECT_ID":"2026-004E","EPOCH":"2026-03-09T22:21:50.544864","MEAN_MOTION":14.87695764,"ECCENTRICITY":0.00096588,"INCLINATION":97.7992,"RA_OF_ASC_NODE":69.0847,"ARG_OF_PERICENTER":106.8062,"MEAN_ANOMALY":253.4215,"EPHEMERIS_TYPE":0,"CLASSIFICATION_TYPE":"U","NORAD_CAT_ID":67367,"ELEMENT_SET_NO":999,"REV_AT_EPOCH":853,"BSTAR":0.00074909668,"MEAN_MOTION_DOT":6.779e-5,"MEAN_MOTION_DDOT":0},{"OBJECT_NAME":"SPOT 1","OBJECT_ID":"1986-019A","EPOCH":"2026-03-09T18:07:50.597472","MEAN_MOTION":14.71225325,"ECCENTRICITY":0.01282848,"INCLINATION":98.6589,"RA_OF_ASC_NODE":355.6082,"ARG_OF_PERICENTER":216.6386,"MEAN_ANOMALY":142.5996,"EPHEMERIS_TYPE":0,"CLASSIFICATION_TYPE":"U","NORAD_CAT_ID":16613,"ELEMENT_SET_NO":999,"REV_AT_EPOCH":79637,"BSTAR":0.00023669966,"MEAN_MOTION_DOT":1.593e-5,"MEAN_MOTION_DDOT":0}]
